[{"OBJECT_NAME":"DOORY-SAT","OBJECT_ID":"2023-188A","EPOCH":"2026-03-09T23:27:23.333760","MEAN_MOTION":14.80342987,"ECCENTRICITY":0.00094423,"INCLINATION":46.9821,"RA_OF_ASC_NODE":60.4458,"ARG_OF_PERICENTER":285.1315,"MEAN_ANOMALY":74.8534,"EPHEMERIS_TYPE":0,"CLASSIFICATION_TYPE":"U","NORAD_CAT_ID":58500,"ELEMENT_SET_NO":999,"REV_AT_EPOCH":12229,"BSTAR":0.00032429984,"MEAN_MOTION_DOT":2.298e-5,"MEAN_MOTION_DDOT":0},{"OBJECT_NAME":"FENGYUN 1C DEB","OBJECT_ID":"1999-025BPE","EPOCH":"2026-03-09T18:26:54.503232","MEAN_MOTION":14.78648757,"ECCENTRICITY":0.00200285,"INCLINATION":99.0642,"RA_OF_ASC_NODE":358.9756,"ARG_OF_PERICENTER":319.3641,"MEAN_ANOMALY":40.6071,"EPHEMERIS_TYPE":0,"CLASSIFICATION_TYPE":"U","NORAD_CAT_ID":31296,"ELEMENT_SET_NO":999,"REV_AT_EPOCH":98632,"BSTAR":0.0057442422,"MEAN_MOTION_DOT":0.00042417,"MEAN_MOTION_DDOT":0}]
